KUIPER-00153            
1 65773U 25217M   26186.13656017  .00001542  00000+0  23123-3 0  9992
2 65773  51.9002 226.3257 0000605  89.7529 270.3503 14.79930509 42514
KUIPER-00155            
1 65774U 25217N   26186.03115805  .00003395  00000+0  47415-3 0  9995
2 65774  51.8998 199.2547 0000449  75.6462 284.4550 14.79932682 42886
KUIPER-00156            
1 65775U 25217P   26185.83267542  .00002285  00000+0  32869-3 0  9993
2 65775  51.9001 227.6512 0000478  91.6153 268.4864 14.79932168 42461
KUIPER-00163            
1 65777U 25217R   26186.25005787  .00212048  29428-4  45506-3 0  9995
2 65777  51.8777 170.7141 0006086  43.3163 250.0570 15.98079510  5379
KUIPER-00165            
1 65778U 25217S   26185.41670089  .00001335  00000+0  20409-3 0  9996
2 65778  51.8980 239.4368 0000536  95.3930 264.7094 14.79932108 42264
KUIPER-00166            
1 65779U 25217T   26186.13925583  .00003991  00000+0  55224-3 0  9992
2 65779  51.9008 223.7902 0000402  87.3717 272.7291 14.79932385 42549
KUIPER-00167            
1 65780U 25217U   26186.21625969  .00000880  00000+0  14440-3 0  9997
2 65780  51.8950 245.8169 0000515  88.2209 271.8813 14.79929885 42245
KUIPER-00168            
1 65781U 25217V   26185.82996775  .00002306  00000+0  33137-3 0  9999
2 65781  51.8976 230.1144 0000497  84.4004 275.7015 14.79931227 42435
KUIPER-00169            
1 65782U 25217W   26186.16222929  .00004604  00000+0  63249-3 0  9991
2 65782  51.8992 233.6541 0000519  95.9685 264.1336 14.79936326 42411
KUIPER-00170            
1 65783U 25217X   26185.41399752  .00000525  00000+0  97897-4 0  9993
2 65783  51.8974 241.9241 0000551  90.9688 269.1338 14.79926351 42239
KUIPER-00172            
1 65785U 25217Z   26185.80429527  .00003817  00000+0  52938-3 0  9995
2 65785  51.8976 222.7263 0001006  87.3446 272.7631 14.79936955 42532
KUIPER-00173            
1 65786U 25217AA  26186.12846179  .00000770  00000+0  12997-3 0  9994
2 65786  51.8981 233.8000 0000540  92.1884 267.9140 14.79930596 42405
KUIPER-00174            
1 65787U 25217AB  26186.13385847  .00002454  00000+0  35077-3 0  9991
2 65787  51.9018 228.8248 0000467  85.7698 274.3318 14.79926022 42470
KUIPER-00176            
1 65788U 25217AC  26185.57743437  .00005182  00000+0  70813-3 0  9990
2 65788  51.8982 246.2211 0000472  88.5075 271.5942 14.79940064 42182
KUIPER-00101            
1 65947U 25228A   26185.31939024  .00002924  00000+0  41248-3 0  9991
2 65947  51.8962 204.8200 0000468  81.8099 278.2917 14.79927096 40502
KUIPER-00113            
1 65948U 25228B   26185.42604974  .00002850  00000+0  40273-3 0  9992
2 65948  51.8959 199.3673 0000459  62.3921 297.7088 14.79933832 40587
