{"fetched_at":"2026-07-05T17:36:07.652Z","source":"https://celestrak.org/NORAD/elements/gp.php?GROUP=kuiper&FORMAT=JSON","constellation":"kuiper","records":[{"OBJECT_NAME":"KUIPER-00153","OBJECT_ID":"2025-217M","EPOCH":"2026-07-05T03:16:38.798688","CLASSIFICATION_TYPE":"U","MEAN_MOTION":14.79930509,"ECCENTRICITY":0.00006056,"INCLINATION":51.9002,"RA_OF_ASC_NODE":226.3257,"ARG_OF_PERICENTER":89.7529,"MEAN_ANOMALY":270.3503,"EPHEMERIS_TYPE":0,"NORAD_CAT_ID":65773,"ELEMENT_SET_NO":999,"REV_AT_EPOCH":4251,"BSTAR":0.0002312301,"MEAN_MOTION_DOT":0.00001542,"MEAN_MOTION_DDOT":0},{"OBJECT_NAME":"KUIPER-00155","OBJECT_ID":"2025-217N","EPOCH":"2026-07-05T00:44:52.055520","CLASSIFICATION_TYPE":"U","MEAN_MOTION":14.79932682,"ECCENTRICITY":0.00004495,"INCLINATION":51.8998,"RA_OF_ASC_NODE":199.2547,"ARG_OF_PERICENTER":75.6462,"MEAN_ANOMALY":284.455,"EPHEMERIS_TYPE":0,"NORAD_CAT_ID":65774,"ELEMENT_SET_NO":999,"REV_AT_EPOCH":4288,"BSTAR":0.00047415097,"MEAN_MOTION_DOT":0.00003395,"MEAN_MOTION_DDOT":0},{"OBJECT_NAME":"KUIPER-00156","OBJECT_ID":"2025-217P","EPOCH":"2026-07-04T19:59:03.156288","CLASSIFICATION_TYPE":"U","MEAN_MOTION":14.79932168,"ECCENTRICITY":0.00004783,"INCLINATION":51.9001,"RA_OF_ASC_NODE":227.6512,"ARG_OF_PERICENTER":91.6153,"MEAN_ANOMALY":268.4864,"EPHEMERIS_TYPE":0,"NORAD_CAT_ID":65775,"ELEMENT_SET_NO":999,"REV_AT_EPOCH":4246,"BSTAR":0.00032869133,"MEAN_MOTION_DOT":0.00002285,"MEAN_MOTION_DDOT":0},{"OBJECT_NAME":"KUIPER-00163","OBJECT_ID":"2025-217R","EPOCH":"2026-07-05T06:00:04.999968","CLASSIFICATION_TYPE":"U","MEAN_MOTION":15.9807951,"ECCENTRICITY":0.00060864,"INCLINATION":51.8777,"RA_OF_ASC_NODE":170.7141,"ARG_OF_PERICENTER":43.3163,"MEAN_ANOMALY":250.057,"EPHEMERIS_TYPE":0,"NORAD_CAT_ID":65777,"ELEMENT_SET_NO":999,"REV_AT_EPOCH":537,"BSTAR":0.00045505863,"MEAN_MOTION_DOT":0.00212048,"MEAN_MOTION_DDOT":0.000029428491},{"OBJECT_NAME":"KUIPER-00165","OBJECT_ID":"2025-217S","EPOCH":"2026-07-04T10:00:02.956896","CLASSIFICATION_TYPE":"U","MEAN_MOTION":14.79932108,"ECCENTRICITY":0.00005361,"INCLINATION":51.898,"RA_OF_ASC_NODE":239.4368,"ARG_OF_PERICENTER":95.393,"MEAN_ANOMALY":264.7094,"EPHEMERIS_TYPE":0,"NORAD_CAT_ID":65778,"ELEMENT_SET_NO":999,"REV_AT_EPOCH":4226,"BSTAR":0.00020409344,"MEAN_MOTION_DOT":0.00001335,"MEAN_MOTION_DDOT":0},{"OBJECT_NAME":"KUIPER-00166","OBJECT_ID":"2025-217T","EPOCH":"2026-07-05T03:20:31.703712","CLASSIFICATION_TYPE":"U","MEAN_MOTION":14.79932385,"ECCENTRICITY":0.00004021,"INCLINATION":51.9008,"RA_OF_ASC_NODE":223.7902,"ARG_OF_PERICENTER":87.3717,"MEAN_ANOMALY":272.7291,"EPHEMERIS_TYPE":0,"NORAD_CAT_ID":65779,"ELEMENT_SET_NO":999,"REV_AT_EPOCH":4254,"BSTAR":0.00055224057,"MEAN_MOTION_DOT":0.00003991,"MEAN_MOTION_DDOT":0},{"OBJECT_NAME":"KUIPER-00167","OBJECT_ID":"2025-217U","EPOCH":"2026-07-05T05:11:24.837216","CLASSIFICATION_TYPE":"U","MEAN_MOTION":14.79929885,"ECCENTRICITY":0.00005158,"INCLINATION":51.895,"RA_OF_ASC_NODE":245.8169,"ARG_OF_PERICENTER":88.2209,"MEAN_ANOMALY":271.8813,"EPHEMERIS_TYPE":0,"NORAD_CAT_ID":65780,"ELEMENT_SET_NO":999,"REV_AT_EPOCH":4224,"BSTAR":0.00014440048,"MEAN_MOTION_DOT":0.0000088,"MEAN_MOTION_DDOT":0},{"OBJECT_NAME":"KUIPER-00168","OBJECT_ID":"2025-217V","EPOCH":"2026-07-04T19:55:09.213600","CLASSIFICATION_TYPE":"U","MEAN_MOTION":14.79931227,"ECCENTRICITY":0.00004971,"INCLINATION":51.8976,"RA_OF_ASC_NODE":230.1144,"ARG_OF_PERICENTER":84.4004,"MEAN_ANOMALY":275.7015,"EPHEMERIS_TYPE":0,"NORAD_CAT_ID":65781,"ELEMENT_SET_NO":999,"REV_AT_EPOCH":4243,"BSTAR":0.0003313724,"MEAN_MOTION_DOT":0.00002306,"MEAN_MOTION_DDOT":0},{"OBJECT_NAME":"KUIPER-00169","OBJECT_ID":"2025-217W","EPOCH":"2026-07-05T03:53:36.610656","CLASSIFICATION_TYPE":"U","MEAN_MOTION":14.79936326,"ECCENTRICITY":0.00005195,"INCLINATION":51.8992,"RA_OF_ASC_NODE":233.6541,"ARG_OF_PERICENTER":95.9685,"MEAN_ANOMALY":264.1336,"EPHEMERIS_TYPE":0,"NORAD_CAT_ID":65782,"ELEMENT_SET_NO":999,"REV_AT_EPOCH":4241,"BSTAR":0.00063249095,"MEAN_MOTION_DOT":0.00004604,"MEAN_MOTION_DDOT":0},{"OBJECT_NAME":"KUIPER-00170","OBJECT_ID":"2025-217X","EPOCH":"2026-07-04T09:56:09.385728","CLASSIFICATION_TYPE":"U","MEAN_MOTION":14.79926351,"ECCENTRICITY":0.00005514,"INCLINATION":51.8974,"RA_OF_ASC_NODE":241.9241,"ARG_OF_PERICENTER":90.9688,"MEAN_ANOMALY":269.1338,"EPHEMERIS_TYPE":0,"NORAD_CAT_ID":65783,"ELEMENT_SET_NO":999,"REV_AT_EPOCH":4223,"BSTAR":0.000097897134,"MEAN_MOTION_DOT":0.00000525,"MEAN_MOTION_DDOT":0},{"OBJECT_NAME":"KUIPER-00172","OBJECT_ID":"2025-217Z","EPOCH":"2026-07-04T19:18:11.111328","CLASSIFICATION_TYPE":"U","MEAN_MOTION":14.79936955,"ECCENTRICITY":0.00010065,"INCLINATION":51.8976,"RA_OF_ASC_NODE":222.7263,"ARG_OF_PERICENTER":87.3446,"MEAN_ANOMALY":272.7631,"EPHEMERIS_TYPE":0,"NORAD_CAT_ID":65785,"ELEMENT_SET_NO":999,"REV_AT_EPOCH":4253,"BSTAR":0.00052937556,"MEAN_MOTION_DOT":0.00003817,"MEAN_MOTION_DDOT":0},{"OBJECT_NAME":"KUIPER-00173","OBJECT_ID":"2025-217AA","EPOCH":"2026-07-05T03:04:59.098656","CLASSIFICATION_TYPE":"U","MEAN_MOTION":14.79930596,"ECCENTRICITY":0.00005401,"INCLINATION":51.8981,"RA_OF_ASC_NODE":233.8,"ARG_OF_PERICENTER":92.1884,"MEAN_ANOMALY":267.914,"EPHEMERIS_TYPE":0,"NORAD_CAT_ID":65786,"ELEMENT_SET_NO":999,"REV_AT_EPOCH":4240,"BSTAR":0.00012996977,"MEAN_MOTION_DOT":0.0000077,"MEAN_MOTION_DDOT":0},{"OBJECT_NAME":"KUIPER-00174","OBJECT_ID":"2025-217AB","EPOCH":"2026-07-05T03:12:45.371808","CLASSIFICATION_TYPE":"U","MEAN_MOTION":14.79926022,"ECCENTRICITY":0.00004678,"INCLINATION":51.9018,"RA_OF_ASC_NODE":228.8248,"ARG_OF_PERICENTER":85.7698,"MEAN_ANOMALY":274.3318,"EPHEMERIS_TYPE":0,"NORAD_CAT_ID":65787,"ELEMENT_SET_NO":999,"REV_AT_EPOCH":4247,"BSTAR":0.00035077216,"MEAN_MOTION_DOT":0.00002454,"MEAN_MOTION_DDOT":0},{"OBJECT_NAME":"KUIPER-00176","OBJECT_ID":"2025-217AC","EPOCH":"2026-07-04T13:51:30.329568","CLASSIFICATION_TYPE":"U","MEAN_MOTION":14.79940064,"ECCENTRICITY":0.00004729,"INCLINATION":51.8982,"RA_OF_ASC_NODE":246.2211,"ARG_OF_PERICENTER":88.5075,"MEAN_ANOMALY":271.5942,"EPHEMERIS_TYPE":0,"NORAD_CAT_ID":65788,"ELEMENT_SET_NO":999,"REV_AT_EPOCH":4218,"BSTAR":0.00070812688,"MEAN_MOTION_DOT":0.00005182,"MEAN_MOTION_DDOT":0},{"OBJECT_NAME":"KUIPER-00101","OBJECT_ID":"2025-228A","EPOCH":"2026-07-04T07:39:55.316736","CLASSIFICATION_TYPE":"U","MEAN_MOTION":14.79927096,"ECCENTRICITY":0.0000468,"INCLINATION":51.8962,"RA_OF_ASC_NODE":204.82,"ARG_OF_PERICENTER":81.8099,"MEAN_ANOMALY":278.2917,"EPHEMERIS_TYPE":0,"NORAD_CAT_ID":65947,"ELEMENT_SET_NO":999,"REV_AT_EPOCH":4050,"BSTAR":0.00041247501,"MEAN_MOTION_DOT":0.00002924,"MEAN_MOTION_DDOT":0},{"OBJECT_NAME":"KUIPER-00113","OBJECT_ID":"2025-228B","EPOCH":"2026-07-04T10:13:30.697536","CLASSIFICATION_TYPE":"U","MEAN_MOTION":14.79933832,"ECCENTRICITY":0.00004592,"INCLINATION":51.8959,"RA_OF_ASC_NODE":199.3673,"ARG_OF_PERICENTER":62.3921,"MEAN_ANOMALY":297.7088,"EPHEMERIS_TYPE":0,"NORAD_CAT_ID":65948,"ELEMENT_SET_NO":999,"REV_AT_EPOCH":4058,"BSTAR":0.00040272595,"MEAN_MOTION_DOT":0.0000285,"MEAN_MOTION_DDOT":0}]}
